LEMUR-2-JK0903EM1407    
1 58336U 23174CJ  26061.81375270  .00027787  00000+0  56516-3 0  9996
2 58336  97.3934 149.7539 0006317 138.2952 221.8780 15.46242605129260
LEMUR-2-MJR092620       
1 58340U 23174CN  26061.82385128  .00014184  00000+0  33526-3 0  9998
2 58340  97.4000 150.1573 0008011 136.1466 224.0418 15.41908911129249
LEMUR-2-NIMBUS2000      
1 58899U 24022A   26061.65845429  .00020131  00000+0  56659-3 0  9997
2 58899  97.4233 270.5078 0010359 136.1189 224.0880 15.36451701115896
LEMUR-2-VALHALLA        
1 58900U 24022B   26061.57138123  .00019546  00000+0  55436-3 0  9997
2 58900  97.4232 270.4562 0010961 132.3573 227.8601 15.36212032115882
LEMUR-2-OBA-NI-JESU     
1 58902U 24022D   26061.56803385  .00096961  00000+0  10291-2 0  9992
2 58902  97.4071 279.2684 0005262  91.4411 268.7450 15.63749344116485
LEMUR-2-CAEL            
1 58903U 24022E   26061.66444136  .00020136  00000+0  55080-3 0  9996
2 58903  97.4218 271.3129 0009399 116.3247 243.8964 15.37349503115954
LEMUR-2-JOHNNYTRUONG    
1 59146U 24043BA  26061.95044822  .00041646  00000+0  67859-3 0  9995
2 59146  97.5245 207.7909 0005337 207.6830 152.4138 15.52505666111511
LEMUR-2-TOMATOKECHUP    
1 60471U 24149D   26061.77618547  .00014388  00000+0  44589-3 0  9994
2 60471  97.3861 143.7212 0000867 207.4885 152.6312 15.33536821 85841
LEMUR-2-STELLA          
1 60533U 24149BT  26061.83185993  .00014713  00000+0  92755-3 0  9994
2 60533  97.6790 144.0095 0001520  96.4229 263.7173 15.09234270 84442
LEMUR-2-MARHISYAM       
1 60536U 24149BW  26061.77728897  .00014374  00000+0  91740-3 0  9992
2 60536  97.6931 144.2874 0003239 124.0615 236.0921 15.08784487 84426
LEMUR-2-AHMED-ASRAR     
1 60576U 24149DN  26061.77586201  .00014478  00000+0  89019-3 0  9998
2 60576  97.7047 145.9871 0002195  40.1325 320.0065 15.10151355 84495
LEMUR-2-LLOYD           
1 60577U 24149DP  26061.75406379  .00012347  00000+0  82838-3 0  9999
2 60577  97.6811 142.9868 0005130 142.1572 218.0017 15.06971902 84357
LEMUR-2-SQUIRRELCOMM    
1 60578U 24149DQ  26061.78317677  .00009049  00000+0  62882-3 0  9997
2 60578  97.6762 143.1200 0006325  62.0456 298.1410 15.05742007 84384
LEMUR-2-SIERRINI        
1 60579U 24149DR  26061.77795069  .00014713  00000+0  94733-3 0  9996
2 60579  97.6891 144.0826 0006094 171.1107 189.0230 15.08445525 84409
LEMUR-2-WILSON          
1 62694U 25009CP  26061.80256833  .00002945  00000+0  27710-3 0  9992
2 62694  97.7087 142.1529 0003957  51.3376 308.8198 14.94628508 61461
LEMUR-2-STAR-FOX        
1 62696U 25009CR  26061.74533087  .00011819  00000+0  93679-3 0  9993
2 62696  97.7066 144.2474 0002128 166.0794 194.0489 15.00703535 61582
