[{"OBJECT_NAME":"LEMUR-2-JK0903EM1407","OBJECT_ID":"2023-174CJ","EPOCH":"2026-03-02T19:31:48.233280","MEAN_MOTION":15.46242605,"ECCENTRICITY":0.00063175,"INCLINATION":97.3934,"RA_OF_ASC_NODE":149.7539,"ARG_OF_PERICENTER":138.2952,"MEAN_ANOMALY":221.878,"EPHEMERIS_TYPE":0,"CLASSIFICATION_TYPE":"U","NORAD_CAT_ID":58336,"ELEMENT_SET_NO":999,"REV_AT_EPOCH":12926,"BSTAR":0.00056515592,"MEAN_MOTION_DOT":0.00027787,"MEAN_MOTION_DDOT":0},{"OBJECT_NAME":"LEMUR-2-MJR092620","OBJECT_ID":"2023-174CN","EPOCH":"2026-03-02T19:46:20.750592","MEAN_MOTION":15.41908911,"ECCENTRICITY":0.00080114,"INCLINATION":97.4,"RA_OF_ASC_NODE":150.1573,"ARG_OF_PERICENTER":136.1466,"MEAN_ANOMALY":224.0418,"EPHEMERIS_TYPE":0,"CLASSIFICATION_TYPE":"U","NORAD_CAT_ID":58340,"ELEMENT_SET_NO":999,"REV_AT_EPOCH":12924,"BSTAR":0.00033525753,"MEAN_MOTION_DOT":0.00014184,"MEAN_MOTION_DDOT":0},{"OBJECT_NAME":"LEMUR-2-NIMBUS2000","OBJECT_ID":"2024-022A","EPOCH":"2026-03-02T15:48:10.450656","MEAN_MOTION":15.36451701,"ECCENTRICITY":0.00103592,"INCLINATION":97.4233,"RA_OF_ASC_NODE":270.5078,"ARG_OF_PERICENTER":136.1189,"MEAN_ANOMALY":224.088,"EPHEMERIS_TYPE":0,"CLASSIFICATION_TYPE":"U","NORAD_CAT_ID":58899,"ELEMENT_SET_NO":999,"REV_AT_EPOCH":11589,"BSTAR":0.00056659243,"MEAN_MOTION_DOT":0.00020131,"MEAN_MOTION_DDOT":0},{"OBJECT_NAME":"LEMUR-2-VALHALLA","OBJECT_ID":"2024-022B","EPOCH":"2026-03-02T13:42:47.338272","MEAN_MOTION":15.36212032,"ECCENTRICITY":0.0010961,"INCLINATION":97.4232,"RA_OF_ASC_NODE":270.4562,"ARG_OF_PERICENTER":132.3573,"MEAN_ANOMALY":227.8601,"EPHEMERIS_TYPE":0,"CLASSIFICATION_TYPE":"U","NORAD_CAT_ID":58900,"ELEMENT_SET_NO":999,"REV_AT_EPOCH":11588,"BSTAR":0.00055436,"MEAN_MOTION_DOT":0.00019546,"MEAN_MOTION_DDOT":0},{"OBJECT_NAME":"LEMUR-2-OBA-NI-JESU","OBJECT_ID":"2024-022D","EPOCH":"2026-03-02T13:37:58.124640","MEAN_MOTION":15.63749344,"ECCENTRICITY":0.0005262,"INCLINATION":97.4071,"RA_OF_ASC_NODE":279.2684,"ARG_OF_PERICENTER":91.4411,"MEAN_ANOMALY":268.745,"EPHEMERIS_TYPE":0,"CLASSIFICATION_TYPE":"U","NORAD_CAT_ID":58902,"ELEMENT_SET_NO":999,"REV_AT_EPOCH":11648,"BSTAR":0.0010291,"MEAN_MOTION_DOT":0.00096961,"MEAN_MOTION_DDOT":0},{"OBJECT_NAME":"LEMUR-2-CAEL","OBJECT_ID":"2024-022E","EPOCH":"2026-03-02T15:56:47.733504","MEAN_MOTION":15.37349503,"ECCENTRICITY":0.00093991,"INCLINATION":97.4218,"RA_OF_ASC_NODE":271.3129,"ARG_OF_PERICENTER":116.3247,"MEAN_ANOMALY":243.8964,"EPHEMERIS_TYPE":0,"CLASSIFICATION_TYPE":"U","NORAD_CAT_ID":58903,"ELEMENT_SET_NO":999,"REV_AT_EPOCH":11595,"BSTAR":0.00055080169,"MEAN_MOTION_DOT":0.00020136,"MEAN_MOTION_DDOT":0},{"OBJECT_NAME":"LEMUR-2-JOHNNYTRUONG","OBJECT_ID":"2024-043BA","EPOCH":"2026-03-02T22:48:38.726208","MEAN_MOTION":15.52505666,"ECCENTRICITY":0.00053377,"INCLINATION":97.5245,"RA_OF_ASC_NODE":207.7909,"ARG_OF_PERICENTER":207.683,"MEAN_ANOMALY":152.4138,"EPHEMERIS_TYPE":0,"CLASSIFICATION_TYPE":"U","NORAD_CAT_ID":59146,"ELEMENT_SET_NO":999,"REV_AT_EPOCH":11151,"BSTAR":0.00067858887,"MEAN_MOTION_DOT":0.00041646,"MEAN_MOTION_DDOT":0},{"OBJECT_NAME":"LEMUR-2-TOMATOKECHUP","OBJECT_ID":"2024-149D","EPOCH":"2026-03-02T18:37:42.424608","MEAN_MOTION":15.33536821,"ECCENTRICITY":8.676e-5,"INCLINATION":97.3861,"RA_OF_ASC_NODE":143.7212,"ARG_OF_PERICENTER":207.4885,"MEAN_ANOMALY":152.6312,"EPHEMERIS_TYPE":0,"CLASSIFICATION_TYPE":"U","NORAD_CAT_ID":60471,"ELEMENT_SET_NO":999,"REV_AT_EPOCH":8584,"BSTAR":0.00044589459,"MEAN_MOTION_DOT":0.00014388,"MEAN_MOTION_DDOT":0},{"OBJECT_NAME":"LEMUR-2-STELLA","OBJECT_ID":"2024-149BT","EPOCH":"2026-03-02T19:57:52.697952","MEAN_MOTION":15.0923427,"ECCENTRICITY":0.000152,"INCLINATION":97.679,"RA_OF_ASC_NODE":144.0095,"ARG_OF_PERICENTER":96.4229,"MEAN_ANOMALY":263.7173,"EPHEMERIS_TYPE":0,"CLASSIFICATION_TYPE":"U","NORAD_CAT_ID":60533,"ELEMENT_SET_NO":999,"REV_AT_EPOCH":8444,"BSTAR":0.00092755323,"MEAN_MOTION_DOT":0.00014713,"MEAN_MOTION_DDOT":0},{"OBJECT_NAME":"LEMUR-2-MARHISYAM","OBJECT_ID":"2024-149BW","EPOCH":"2026-03-02T18:39:17.767008","MEAN_MOTION":15.08784487,"ECCENTRICITY":0.00032395,"INCLINATION":97.6931,"RA_OF_ASC_NODE":144.2874,"ARG_OF_PERICENTER":124.0615,"MEAN_ANOMALY":236.0921,"EPHEMERIS_TYPE":0,"CLASSIFICATION_TYPE":"U","NORAD_CAT_ID":60536,"ELEMENT_SET_NO":999,"REV_AT_EPOCH":8442,"BSTAR":0.00091740415,"MEAN_MOTION_DOT":0.00014374,"MEAN_MOTION_DDOT":0},{"OBJECT_NAME":"LEMUR-2-AHMED-ASRAR","OBJECT_ID":"2024-149DN","EPOCH":"2026-03-02T18:37:14.477664","MEAN_MOTION":15.10151355,"ECCENTRICITY":0.0002195,"INCLINATION":97.7047,"RA_OF_ASC_NODE":145.9871,"ARG_OF_PERICENTER":40.1325,"MEAN_ANOMALY":320.0065,"EPHEMERIS_TYPE":0,"CLASSIFICATION_TYPE":"U","NORAD_CAT_ID":60576,"ELEMENT_SET_NO":999,"REV_AT_EPOCH":8449,"BSTAR":0.00089018669,"MEAN_MOTION_DOT":0.00014478,"MEAN_MOTION_DDOT":0},{"OBJECT_NAME":"LEMUR-2-LLOYD","OBJECT_ID":"2024-149DP","EPOCH":"2026-03-02T18:05:51.111456","MEAN_MOTION":15.06971902,"ECCENTRICITY":0.00051306,"INCLINATION":97.6811,"RA_OF_ASC_NODE":142.9868,"ARG_OF_PERICENTER":142.1572,"MEAN_ANOMALY":218.0017,"EPHEMERIS_TYPE":0,"CLASSIFICATION_TYPE":"U","NORAD_CAT_ID":60577,"ELEMENT_SET_NO":999,"REV_AT_EPOCH":8435,"BSTAR":0.00082838312,"MEAN_MOTION_DOT":0.00012347,"MEAN_MOTION_DDOT":0},{"OBJECT_NAME":"LEMUR-2-SQUIRRELCOMM","OBJECT_ID":"2024-149DQ","EPOCH":"2026-03-02T18:47:46.472928","MEAN_MOTION":15.05742007,"ECCENTRICITY":0.00063257,"INCLINATION":97.6762,"RA_OF_ASC_NODE":143.12,"ARG_OF_PERICENTER":62.0456,"MEAN_ANOMALY":298.141,"EPHEMERIS_TYPE":0,"CLASSIFICATION_TYPE":"U","NORAD_CAT_ID":60578,"ELEMENT_SET_NO":999,"REV_AT_EPOCH":8438,"BSTAR":0.0006288227,"MEAN_MOTION_DOT":9.049e-5,"MEAN_MOTION_DDOT":0},{"OBJECT_NAME":"LEMUR-2-SIERRINI","OBJECT_ID":"2024-149DR","EPOCH":"2026-03-02T18:40:14.939616","MEAN_MOTION":15.08445525,"ECCENTRICITY":0.00060949,"INCLINATION":97.6891,"RA_OF_ASC_NODE":144.0826,"ARG_OF_PERICENTER":171.1107,"MEAN_ANOMALY":189.023,"EPHEMERIS_TYPE":0,"CLASSIFICATION_TYPE":"U","NORAD_CAT_ID":60579,"ELEMENT_SET_NO":999,"REV_AT_EPOCH":8440,"BSTAR":0.00094732802,"MEAN_MOTION_DOT":0.00014713,"MEAN_MOTION_DDOT":0},{"OBJECT_NAME":"LEMUR-2-WILSON","OBJECT_ID":"2025-009CP","EPOCH":"2026-03-02T19:15:41.903712","MEAN_MOTION":14.94628508,"ECCENTRICITY":0.00039577,"INCLINATION":97.7087,"RA_OF_ASC_NODE":142.1529,"ARG_OF_PERICENTER":51.3376,"MEAN_ANOMALY":308.8198,"EPHEMERIS_TYPE":0,"CLASSIFICATION_TYPE":"U","NORAD_CAT_ID":62694,"ELEMENT_SET_NO":999,"REV_AT_EPOCH":6146,"BSTAR":0.00027710092,"MEAN_MOTION_DOT":2.945e-5,"MEAN_MOTION_DDOT":0},{"OBJECT_NAME":"LEMUR-2-STAR-FOX","OBJECT_ID":"2025-009CR","EPOCH":"2026-03-02T17:53:16.587168","MEAN_MOTION":15.00703535,"ECCENTRICITY":0.00021281,"INCLINATION":97.7066,"RA_OF_ASC_NODE":144.2474,"ARG_OF_PERICENTER":166.0794,"MEAN_ANOMALY":194.0489,"EPHEMERIS_TYPE":0,"CLASSIFICATION_TYPE":"U","NORAD_CAT_ID":62696,"ELEMENT_SET_NO":999,"REV_AT_EPOCH":6158,"BSTAR":0.00093679008,"MEAN_MOTION_DOT":0.00011819,"MEAN_MOTION_DDOT":0}]
